{
    "links": {
        "self": "http://www.neowsapp.com/rest/v1/neo/54091660?api_key=iIulBulltgU6a56xZRHN4H3l9WmuAYTsLGpBGhQ2"
    },
    "id": "54091660",
    "neo_reference_id": "54091660",
    "name": "(2020 WL2)",
    "designation": "2020 WL2",
    "nasa_jpl_url": "http://ssd.jpl.nasa.gov/sbdb.cgi?sstr=54091660",
    "absolute_magnitude_h": 22.29,
    "estimated_diameter": {
        "kilometers": {
            "estimated_diameter_min": 0.0925880583,
            "estimated_diameter_max": 0.2070331923
        },
        "meters": {
            "estimated_diameter_min": 92.5880583366,
            "estimated_diameter_max": 207.0331923453
        },
        "miles": {
            "estimated_diameter_min": 0.0575315344,
            "estimated_diameter_max": 0.1286444218
        },
        "feet": {
            "estimated_diameter_min": 303.766605313,
            "estimated_diameter_max": 679.2427787741
        }
    },
    "is_potentially_hazardous_asteroid": false,
    "close_approach_data": [
        {
            "close_approach_date": "2020-11-22",
            "close_approach_date_full": "2020-Nov-22 13:18",
            "epoch_date_close_approach": 1606051080000,
            "relative_velocity": {
                "kilometers_per_second": "13.9738121192",
                "kilometers_per_hour": "50305.7236290386",
                "miles_per_hour": "31258.0203293879"
            },
            "miss_distance": {
                "astronomical": "0.159761817",
                "lunar": "62.147346813",
                "kilometers": "23900027.53052979",
                "miles": "14850788.467259502"
            },
            "orbiting_body": "Earth"
        }
    ],
    "orbital_data": {
        "orbit_id": "5",
        "orbit_determination_date": "2020-11-26 05:21:17",
        "first_observation_date": "2020-11-20",
        "last_observation_date": "2020-11-26",
        "data_arc_in_days": 6,
        "observations_used": 64,
        "orbit_uncertainty": "8",
        "minimum_orbit_intersection": ".153046",
        "jupiter_tisserand_invariant": "3.167",
        "epoch_osculation": "2459174.5",
        "eccentricity": ".5848754777735827",
        "semi_major_axis": "2.472663432263662",
        "inclination": "18.11979428358445",
        "ascending_node_longitude": "46.02277250296306",
        "orbital_period": "1420.188318613681",
        "perihelion_distance": "1.026463225945186",
        "perihelion_argument": "53.62063883688781",
        "aphelion_distance": "3.918863638582139",
        "perihelion_time": "2459207.578124458527",
        "mean_anomaly": "351.6151086098963",
        "mean_motion": ".2534875095659248",
        "equinox": "J2000",
        "orbit_class": {
            "orbit_class_type": "AMO",
            "orbit_class_description": "Near-Earth asteroid orbits similar to that of 1221 Amor",
            "orbit_class_range": "1.017 AU < q (perihelion) < 1.3 AU"
        }
    },
    "is_sentry_object": false
}